KUIPER-00016            
1 63732U 25088J   25261.91413054  .00002141  00000+0  30979-3 0  9995
2 63732  51.9001 151.1833 0010482 217.6164 142.4066 14.79929236 21898
KUIPER-00018            
1 63733U 25088K   25261.91668981 -.00035247  00000+0 -46136-2 0  9993
2 63733  51.9003 139.3650 0012427 249.5509  87.6117 14.79917464  5769
KUIPER-00019            
1 63734U 25088L   25261.91668981 -.00017098  00000+0 -22300-2 0  9995
2 63734  51.8987 138.6176 0009035 254.5393  80.1504 14.79701615  5681
KUIPER-00020            
1 63735U 25088M   25261.91976943  .00001116  00000+0  17613-3 0  9990
2 63735  51.9006 142.5932 0007365 227.2195 132.8148 14.79794692 22225
KUIPER-00021            
1 63736U 25088N   25261.92220494 -.00004468  00000+0 -55740-3 0  9993
2 63736  51.9002 143.6271 0005547 228.1690 131.8800 14.79917527 22048
KUIPER-00023            
1 63737U 25088P   25261.92114075  .00000446  00000+0  87787-4 0  9998
2 63737  51.9001 145.0926 0010645 241.0091 118.9805 14.79952464 22326
KUIPER-00024            
1 63738U 25088Q   25261.91668981 -.00069809  00000+0 -68522-2 0  9992
2 63738  51.8943 132.6557 0002473 244.3114  29.7575 14.92051031  5166
KUIPER-00025            
1 63739U 25088R   25261.85740425  .00000577  00000+0  10496-3 0  9993
2 63739  51.9007 141.4461 0008913 230.3823 129.6353 14.79908684 22352
